NORAD_CAT_ID,OBJECT_NAME,OBJECT_TYPE,EPOCH,MEAN_MOTION,ECCENTRICITY,INCLINATION,RA_OF_ASC_NODE,ARG_OF_PERICENTER,MEAN_ANOMALY,BSTAR,MEAN_MOTION_DOT,MEAN_MOTION_DDOT,TLE_LINE0,TLE_LINE1,TLE_LINE2,SEMIMAJOR_AXIS,PERIOD,APOGEE,PERIGEE,DECAYED
53166.0,STARLINK-4110,PAYLOAD,2022-09-03 14:00:01,15.57030723,0.0001100999999999,53.2173,169.7911,71.9554,354.2715,-0.016222,-0.01083407,0.0,0 STARLINK-4110,1 53166U 22083AL  22246.58334491 -.01083407  00000-0 -16222-1 0  9998,2 53166  53.2173 169.7911 0001101  71.9554 354.2715 15.57030723  8202,6774.393,92.484,397.004,395.512,0.0
53166.0,STARLINK-4110,PAYLOAD,2022-09-03 22:00:00,15.56255648,0.0001246,53.2177,168.1865,71.0942,64.1534,-0.016326,-0.01061323,0.0,0 STARLINK-4110,1 53166U 22083AL  22246.91667824 -.01061323  00000-0 -16326-1 0  9992,2 53166  53.2177 168.1865 0001246  71.0942  64.1534 15.56255648  1303,6776.642,92.53,399.351,397.663,0.0
53166.0,STARLINK-4110,PAYLOAD,2022-09-04 14:00:01,15.54735354,0.0001144,53.2174,164.9786,90.5379,180.0668,-0.017231,-0.01058829,0.0,0 STARLINK-4110,1 53166U 22083AL  22247.58335648 -.01058829  00000-0 -17231-1 0  9995,2 53166  53.2174 164.9786 0001144  90.5379 180.0668 15.54735354  1304,6781.059,92.62,403.7,402.148,0.0
53166.0,STARLINK-4110,PAYLOAD,2022-09-04 16:00:00,15.54544663,0.0001019,53.2172,164.578,85.3568,291.8384,-0.017343,-0.01058254,0.0,0 STARLINK-4110,1 53166U 22083AL  22247.66667824 -.01058254  00000-0 -17343-1 0  9994,2 53166  53.2172 164.5780 0001019  85.3568 291.8384 15.54544663  8365,6781.614000000001,92.632,404.17,402.788,0.0
53166.0,STARLINK-4110,PAYLOAD,2022-09-04 20:00:01,15.54166613,0.0001262999999999,53.2175,163.7781,88.8941,141.4382,-0.017606,-0.01059402,0.0,0 STARLINK-4110,1 53166U 22083AL  22247.83334491 -.01059402  00000-0 -17606-1 0  9992,2 53166  53.2175 163.7781 0001263  88.8941 141.4382 15.54166613  1304,6782.7130000000025,92.654,405.435,403.722,0.0
53166.0,STARLINK-4110,PAYLOAD,2022-09-05 12:00:00,15.52648658,0.0001017,53.2175,160.5812,84.2337,276.3701,-0.018657,-0.01061707,0.0,0 STARLINK-4110,1 53166U 22083AL  22248.50001157 -.01061707  00000-0 -18657-1 0  9995,2 53166  53.2175 160.5812 0001017  84.2337 276.3701 15.52648658  8492,6787.1330000000025,92.745,409.689,408.3080000000001,0.0
53166.0,STARLINK-4110,PAYLOAD,2022-09-05 14:00:01,15.5245622,0.0001131,53.2174,160.1816,79.8779,26.7544,-0.018702,-0.01057317,0.0,0 STARLINK-4110,1 53166U 22083AL  22248.58334491 -.01057317  00000-0 -18702-1 0  9996,2 53166  53.2174 160.1816 0001131  79.8779  26.7544 15.52456220  1305,6787.694,92.756,410.327,408.791,0.0
53166.0,STARLINK-4110,PAYLOAD,2022-09-05 22:00:00,15.51696854,0.0001242,53.2176,158.5873,81.0497,89.1205,-0.019215,-0.01056926,0.0,0 STARLINK-4110,1 53166U 22083AL  22248.91667824 -.01056926  00000-0 -19215-1 0  9997,2 53166  53.2176 158.5873 0001242  81.0497  89.1205 15.51696854  1301,6789.908,92.802,412.617,410.93,0.0
53166.0,STARLINK-4110,PAYLOAD,2022-09-06 04:00:00,15.51121642,0.0001082,53.2176,157.3925,93.2036,34.0232,-0.019434,-0.01047887,0.0,0 STARLINK-4110,1 53166U 22083AL  22249.16667824 -.01047887  00000-0 -19434-1 0  9994,2 53166  53.2176 157.3925 0001082  93.2036  34.0232 15.51121642  8609,6791.587,92.836,414.187,412.717,0.0
53166.0,STARLINK-4110,PAYLOAD,2022-09-06 12:00:00,15.50266567,9.79e-05,53.2176,155.7971,79.4728,109.7052,-0.0088753,-0.00480883,0.0,0 STARLINK-4110,1 53166U 22083AL  22249.50001157 -.00480883  00000-0 -88753-2 0  9990,2 53166  53.2176 155.7971 0000979  79.4728 109.7052 15.50266567  8650,6794.084,92.887,416.614,415.284,0.0
53166.0,STARLINK-4110,PAYLOAD,2022-09-06 14:00:01,15.50121093,0.0001032,53.2174,155.3985,78.9877,215.5339,-0.0060821,-0.00334102,0.0,0 STARLINK-4110,1 53166U 22083AL  22249.58334491 -.00334102  00000-0 -60821-2 0  9996,2 53166  53.2174 155.3985 0001032  78.9877 215.5339 15.50121093  1302,6794.509,92.896,417.075,415.673,0.0
53166.0,STARLINK-4110,PAYLOAD,2022-09-06 20:00:01,15.49884977,0.0001192,53.2177,154.2043,79.0731,171.2658,2.3641e-05,8.91e-06,0.0,0 STARLINK-4110,1 53166U 22083AL  22249.83334491  .00000891  00000-0  23641-4 0  9998,2 53166  53.2177 154.2043 0001192  79.0731 171.2658 15.49884977  8704,6795.199000000001,92.91,417.874,416.254,0.0
53166.0,STARLINK-4110,PAYLOAD,2022-09-06 22:00:00,15.49885852,0.0001229,53.2176,153.8066,75.8457,279.7212,-7.7156e-06,-8.89e-06,0.0,0 STARLINK-4110,1 53166U 22083AL  22249.91667824 -.00000889  00000-0 -77156-5 0  9996,2 53166  53.2176 153.8066 0001229  75.8457 279.7212 15.49885852  1305,6795.196999999999,92.91,417.897,416.227,0.0
53166.0,STARLINK-4110,PAYLOAD,2022-09-07 04:00:00,15.49942299,0.0001213,53.2152,152.6032,75.158,236.1234,-0.00032643,-0.00018971,0.0,0 STARLINK-4110,1 53166U 22083AL  22250.16667824 -.00018971  00000-0 -32643-3 0  9996,2 53166  53.2152 152.6032 0001213  75.1580 236.1234 15.49942299  8758,6795.031999999997,92.907,417.721,416.072,0.0
53166.0,STARLINK-4110,PAYLOAD,2022-09-07 14:00:01,15.49919351,0.0001293,53.215,150.6097,89.3668,28.1148,-0.00059882,-0.0003433,0.0,0 STARLINK-4110,1 53166U 22083AL  22250.58334491 -.00034330  00000-0 -59882-3 0  9994,2 53166  53.2150 150.6097 0001293  89.3668  28.1148 15.49919351  1307,6795.099,92.908,417.842,416.085,0.0
53166.0,STARLINK-4110,PAYLOAD,2022-09-07 22:00:00,15.49886375,0.0001488,53.2152,149.0179,85.8913,92.5343,-0.00041197,-0.00023763,0.0,0 STARLINK-4110,1 53166U 22083AL  22250.91667824 -.00023763  00000-0 -41197-3 0  9998,2 53166  53.2152 149.0179 0001488  85.8913  92.5343 15.49886375  8872,6795.195,92.91,418.071,416.049,0.0
53166.0,STARLINK-4110,PAYLOAD,2022-09-08 14:00:01,15.49859714,0.0001415,53.2153,145.8306,91.4277,208.8085,0.0010780999999999,0.00061161,0.0,0 STARLINK-4110,1 53166U 22083AL  22251.58334491  .00061161  00000-0  10781-2 0  9999,2 53166  53.2153 145.8306 0001415  91.4277 208.8085 15.49859714  1308,6795.273,92.912,418.1,416.177,0.0
53166.0,STARLINK-4110,PAYLOAD,2022-09-08 22:00:00,15.4991695,0.0001423,53.2155,144.239,85.7081,275.4379,-0.00045944,-0.00026469,0.0,0 STARLINK-4110,1 53166U 22083AL  22251.91667824 -.00026469  00000-0 -45944-3 0  9999,2 53166  53.2155 144.2390 0001423  85.7081 275.4379 15.49916950  9023,6795.106,92.908,417.93800000000016,416.004,0.0
53166.0,STARLINK-4110,PAYLOAD,2022-09-09 14:00:01,15.49840074,0.0001171999999999,53.2157,141.0514,90.0168,32.9884,0.00095107,0.00053813,0.0,0 STARLINK-4110,1 53166U 22083AL  22252.58334491  .00053813  00000-0  95107-3 0  9991,2 53166  53.2157 141.0514 0001172  90.0168  32.9884 15.49840074  1307,6795.33,92.913,417.992,416.399,0.0
53166.0,STARLINK-4110,PAYLOAD,2022-09-09 22:00:00,15.49881253,0.0001249,53.2159,139.4601,81.9113,101.9767,-0.0001867,-0.00011031,0.0,0 STARLINK-4110,1 53166U 22083AL  22252.91667824 -.00011031  00000-0 -18670-3 0  9995,2 53166  53.2159 139.4601 0001249  81.9113 101.9767 15.49881253  1302,6795.21,92.91,417.924,416.226,0.0
53166.0,STARLINK-4110,PAYLOAD,2022-09-10 04:00:00,15.49862801,0.0001231999999999,53.2156,138.2658,75.7036,63.8709,0.00092275,0.00052228,0.0,0 STARLINK-4110,1 53166U 22083AL  22253.16667824  .00052228  00000-0  92275-3 0  9997,2 53166  53.2156 138.2658 0001232  75.7036  63.8709 15.49862801  9224,6795.264,92.911,417.966,416.292,0.0
53166.0,STARLINK-4110,PAYLOAD,2022-09-10 14:00:01,15.49873208,0.0001155,53.2152,136.2723,89.0254,216.6988,0.0010494,0.00059537,0.0,0 STARLINK-4110,1 53166U 22083AL  22253.58334491  .00059537  00000-0  10494-2 0  9996,2 53166  53.2152 136.2723 0001155  89.0254 216.6988 15.49873208  1306,6795.234,92.911,417.883,416.314,0.0
53166.0,STARLINK-4110,PAYLOAD,2022-09-10 20:00:01,15.49946219,0.0001117,53.2152,135.0787,85.8248,175.5812,-0.0018404,-0.00103754,0.0,0 STARLINK-4110,1 53166U 22083AL  22253.83334491 -.00103754  00000-0 -18404-2 0  9996,2 53166  53.2152 135.0787 0001117  85.8248 175.5812 15.49946219  9320,6795.02,92.906,417.644,416.126,0.0
53166.0,STARLINK-4110,PAYLOAD,2022-09-10 22:00:00,15.49937264,0.0001104,53.215,134.6809,80.2054,286.441,-0.002091,-0.00117577,0.0,0 STARLINK-4110,1 53166U 22083AL  22253.91667824 -.00117577  00000-0 -20910-2 0  9997,2 53166  53.2150 134.6809 0001104  80.2054 286.4410 15.49937264  1304,6795.045999999999,92.907,417.662,416.161,0.0
53166.0,STARLINK-4110,PAYLOAD,2022-09-11 04:00:00,15.49846208,0.0001029,53.2155,133.4899,70.2546,252.0993,0.00049169,0.00027514,0.0,0 STARLINK-4110,1 53166U 22083AL  22254.16667824  .00027514  00000-0  49169-3 0  9992,2 53166  53.2155 133.4899 0001029  70.2546 252.0993 15.49846208  9373,6795.313,92.912,417.877,416.478,0.0
53166.0,STARLINK-4110,PAYLOAD,2022-09-11 14:00:01,15.49721512,0.0001224,53.2166,131.4997,83.2746,45.1957,0.0040415999999999,0.00234582,0.0,0 STARLINK-4110,1 53166U 22083AL  22254.58334491  .00234582  00000-0  40416-2 0  9999,2 53166  53.2166 131.4997 0001224  83.2746  45.1957 15.49721512  9444,6795.677,92.92,418.374,416.71,0.0
53166.0,STARLINK-4110,PAYLOAD,2022-09-11 20:00:01,15.49886885,0.000147,53.2174,130.3084,80.4269,3.6276,-3.909e-05,-2.669e-05,0.0,0 STARLINK-4110,1 53166U 22083AL  22254.83334491 -.00002669  00000-0 -39090-4 0  9996,2 53166  53.2174 130.3084 0001470  80.4269   3.6276 15.49886885  9482,6795.194,92.91,418.0580000000001,416.06,0.0
53166.0,STARLINK-4110,PAYLOAD,2022-09-11 22:00:00,15.49884535,0.0001455,53.2173,129.9107,79.8076,109.4763,2.615800000000001e-05,1.033e-05,0.0,0 STARLINK-4110,1 53166U 22083AL  22254.91667824  .00001033  00000-0  26158-4 0  9997,2 53166  53.2173 129.9107 0001455  79.8076 109.4763 15.49884535  1301,6795.201,92.91,418.054,416.077,0.0
53166.0,STARLINK-4110,PAYLOAD,2022-09-12 04:00:00,15.49887684,8.809999999999999e-05,53.216,128.7071,74.2212,70.8303,0.00075112,0.00042414,0.0,0 STARLINK-4110,1 53166U 22083AL  22255.16667824  .00042414  00000-0  75112-3 0  9996,2 53166  53.2160 128.7071 0000881  74.2212  70.8303 15.49887684  9539,6795.191,92.91,417.655,416.458,0.0
